NORAD_CAT_ID,OBJECT_NAME,OBJECT_TYPE,EPOCH,MEAN_MOTION,ECCENTRICITY,INCLINATION,RA_OF_ASC_NODE,ARG_OF_PERICENTER,MEAN_ANOMALY,BSTAR,MEAN_MOTION_DOT,MEAN_MOTION_DDOT,TLE_LINE0,TLE_LINE1,TLE_LINE2,SEMIMAJOR_AXIS,PERIOD,APOGEE,PERIGEE,DECAYED
51884.0,STARLINK-3577,PAYLOAD,2024-02-21 10:57:43,15.088478,0.0001467,53.2158,113.5814,85.6451,274.4709,0.00027376,4.073e-05,0.0,0 STARLINK-3577,1 51884U 22022AJ  24052.45675802  .00004073  00000-0  27376-3 0  9996,2 51884  53.2158 113.5814 0001467  85.6451 274.4709 15.08847800110525,6917.857,95.437,540.736,538.707,0.0
51884.0,STARLINK-3577,PAYLOAD,2024-02-21 20:30:02,15.08841648,0.0001496,53.2152,111.797,85.1282,274.9881,4.5982e-05,4.44e-06,0.0,0 STARLINK-3577,1 51884U 22022AJ  24052.85419994  .00000444  00000-0  45982-4 0  9990,2 51884  53.2152 111.7970 0001496  85.1282 274.9881 15.08841648110587,6917.875,95.437,540.775,538.705,0.0
51884.0,STARLINK-3577,PAYLOAD,2024-02-22 04:26:58,15.08837493,0.0001695,53.2169,110.313,90.9997,269.1189,2.3403e-05,8.4e-07,0.0,0 STARLINK-3577,1 51884U 22022AJ  24053.18540338  .00000084  00000-0  23403-4 0  9998,2 51884  53.2169 110.3130 0001695  90.9997 269.1189 15.08837493110632,6917.888,95.438,540.926,538.58,0.0
51884.0,STARLINK-3577,PAYLOAD,2024-02-22 10:48:31,15.08837033,0.0001643,53.2169,109.123,90.4472,269.6708,-1.4635e-06,-3.11e-06,0.0,0 STARLINK-3577,1 51884U 22022AJ  24053.45036350 -.00000311  00000-0 -14635-5 0  9995,2 51884  53.2169 109.1230 0001643  90.4472 269.6708 15.08837033110671,6917.889,95.438,540.891,538.618,0.0
51884.0,STARLINK-3577,PAYLOAD,2024-02-22 20:20:50,15.08840565,0.0001685,53.2173,107.3384,89.7177,270.4008,3.6152e-05,2.87e-06,0.0,0 STARLINK-3577,1 51884U 22022AJ  24053.84780166  .00000287  00000-0  36152-4 0  9996,2 51884  53.2173 107.3384 0001685  89.7177 270.4008 15.08840565110739,6917.879,95.438,540.909,538.578,0.0
51884.0,STARLINK-3577,PAYLOAD,2024-02-23 10:39:18,15.08845521,0.0001631,53.2173,104.6613,90.8034,269.3145,3.2747e-05,2.33e-06,0.0,0 STARLINK-3577,1 51884U 22022AJ  24054.44396099  .00000233  00000-0  32747-4 0  9998,2 51884  53.2173 104.6613 0001631  90.8034 269.3145 15.08845521110826,6917.864,95.437,540.857,538.6,0.0
51884.0,STARLINK-3577,PAYLOAD,2024-02-23 20:11:37,15.08841436,0.0001731,53.2182,102.8771,92.9478,267.1713,5.9816e-05,6.64e-06,0.0,0 STARLINK-3577,1 51884U 22022AJ  24054.84140344  .00000664  00000-0  59816-4 0  9996,2 51884  53.2182 102.8771 0001731  92.9478 267.1713 15.08841436110881,6917.876,95.437,540.938,538.544,0.0
51884.0,STARLINK-3577,PAYLOAD,2024-02-24 02:33:09,15.08836686,0.0001671,53.218,101.6873,92.607,267.5113,0.00010496,1.383e-05,0.0,0 STARLINK-3577,1 51884U 22022AJ  24055.10636563  .00001383  00000-0  10496-3 0  9998,2 51884  53.2180 101.6873 0001671  92.6070 267.5113 15.08836686110921,6917.891,95.438,540.911,538.6,0.0
51884.0,STARLINK-3577,PAYLOAD,2024-02-24 10:30:07,15.0880985,0.0001511,53.2177,100.1995,96.6451,263.4713,0.00021488,3.131e-05,0.0,0 STARLINK-3577,1 51884U 22022AJ  24055.43758216  .00003131  00000-0  21488-3 0  9990,2 51884  53.2177 100.1995 0001511  96.6451 263.4713 15.08809850110975,6917.973,95.439,540.883,538.792,0.0
51884.0,STARLINK-3577,PAYLOAD,2024-02-24 20:02:25,15.08831903,0.0001502,53.2172,98.4138,85.7105,274.4059,-3.5975e-06,-3.45e-06,0.0,0 STARLINK-3577,1 51884U 22022AJ  24055.83501573 -.00000345  00000-0 -35975-5 0  9990,2 51884  53.2172  98.4138 0001502  85.7105 274.4059 15.08831903111030,6917.905,95.438,540.809,538.731,0.0
51884.0,STARLINK-3577,PAYLOAD,2024-02-25 11:56:15,15.08851806,0.0001452,53.2165,95.4396,85.1265,274.9893,0.00011403,1.528e-05,0.0,0 STARLINK-3577,1 51884U 22022AJ  24056.49740012  .00001528  00000-0  11403-3 0  9996,2 51884  53.2165  95.4396 0001452  85.1265 274.9893 15.08851806111136,6917.844,95.437,540.714,538.705,0.0
51884.0,STARLINK-3577,PAYLOAD,2024-02-25 19:53:11,15.08848946,0.0001459,53.2165,93.9526,85.2602,274.8557,0.00010643,1.407e-05,0.0,0 STARLINK-3577,1 51884U 22022AJ  24056.82860089  .00001407  00000-0  10643-3 0  9991,2 51884  53.2165  93.9526 0001459  85.2602 274.8557 15.08848946111189,6917.853,95.437,540.727,538.709,0.0
51884.0,STARLINK-3577,PAYLOAD,2024-02-26 02:14:43,15.08840138,0.0001428,53.2167,92.763,90.8168,269.2987,0.00017114,2.437e-05,0.0,0 STARLINK-3577,1 51884U 22022AJ  24057.09356438  .00002437  00000-0  17114-3 0  9993,2 51884  53.2167  92.7630 0001428  90.8168 269.2987 15.08840138111224,6917.88,95.438,540.733,538.757,0.0
51884.0,STARLINK-3577,PAYLOAD,2024-02-26 08:36:16,15.08844445,0.0001459,53.2159,91.5748,86.0885,274.0274,0.00023718,3.489e-05,0.0,0 STARLINK-3577,1 51884U 22022AJ  24057.35851943  .00003489  00000-0  23718-3 0  9998,2 51884  53.2159  91.5748 0001459  86.0885 274.0274 15.08844445111261,6917.867,95.437,540.741,538.722,0.0
51884.0,STARLINK-3577,PAYLOAD,2024-02-27 11:37:52,15.08822911,0.0001463,53.2165,86.5182,102.7326,257.383,-0.0001768,-3.099e-05,0.0,0 STARLINK-3577,1 51884U 22022AJ  24058.48463388 -.00003099  00000-0 -17680-3 0  9995,2 51884  53.2165  86.5182 0001463 102.7326 257.3830 15.08822911111430,6917.933,95.439,540.81,538.786,0.0
51884.0,STARLINK-3577,PAYLOAD,2024-02-28 01:56:19,15.08836662,0.0001612,53.217,83.847,84.9491,275.1685,-3.2653e-05,-8.08e-06,0.0,0 STARLINK-3577,1 51884U 22022AJ  24059.08078271 -.00000808  00000-0 -32653-4 0  9998,2 51884  53.2170  83.8470 0001612  84.9491 275.1685 15.08836662111520,6917.891,95.438,540.871,538.64,0.0
51884.0,STARLINK-3577,PAYLOAD,2024-02-28 08:17:51,15.08847516,0.0001642,53.2168,82.6538,103.8676,256.2499,2.7681e-05,1.53e-06,0.0,0 STARLINK-3577,1 51884U 22022AJ  24059.34573306  .00000153  00000-0  27681-4 0  9992,2 51884  53.2168  82.6538 0001642 103.8676 256.2499 15.08847516111565,6917.857,95.437,540.858,538.587,0.0
51884.0,STARLINK-3577,PAYLOAD,2024-02-29 04:57:52,15.08839162,0.0001552,53.2173,78.7917,110.5001,249.6157,0.00031073,4.661e-05,0.0,0 STARLINK-3577,1 51884U 22022AJ  24060.20685448  .00004661  00000-0  31073-3 0  9997,2 51884  53.2173  78.7917 0001552 110.5001 249.6157 15.08839162111694,6917.883,95.438,540.822,538.674,0.0
51884.0,STARLINK-3577,PAYLOAD,2024-02-29 08:08:38,15.08841454,0.000145,53.2172,78.1962,102.912,257.2034,0.00033612,5.066e-05,0.0,0 STARLINK-3577,1 51884U 22022AJ  24060.33933444  .00005066  00000-0  33612-3 0  9994,2 51884  53.2172  78.1962 0001450 102.9120 257.2034 15.08841454111710,6917.876,95.437,540.744,538.738,0.0
51884.0,STARLINK-3577,PAYLOAD,2024-02-29 17:40:57,15.08839324,0.0001342,53.2159,76.4102,100.954,259.1603,0.00028346,4.226e-05,0.0,0 STARLINK-3577,1 51884U 22022AJ  24060.73677704  .00004226  00000-0  28346-3 0  9997,2 51884  53.2159  76.4102 0001342 100.9540 259.1603 15.08839324111778,6917.882,95.438,540.676,538.819,0.0
51884.0,STARLINK-3577,PAYLOAD,2024-03-01 09:34:48,15.08844191,0.0001544,53.2185,73.4384,109.7222,250.3937,-4.5811e-06,-3.61e-06,0.0,0 STARLINK-3577,1 51884U 22022AJ  24061.39917809 -.00000361  00000-0 -45811-5 0  9999,2 51884  53.2185  73.4384 0001544 109.7222 250.3937 15.08844191111876,6917.868,95.437,540.801,538.664,0.0
51884.0,STARLINK-3577,PAYLOAD,2024-03-02 06:14:48,15.08860194,0.0001747,53.2177,69.5712,109.2025,250.9156,6.2781e-05,7.12e-06,0.0,0 STARLINK-3577,1 51884U 22022AJ  24062.26028128  .00000712  00000-0  62781-4 0  9995,2 51884  53.2177  69.5712 0001747 109.2025 250.9156 15.08860194112005,6917.819,95.436,540.892,538.475,0.0
51884.0,STARLINK-3577,PAYLOAD,2024-03-02 17:22:29,15.08860335,0.0001283,53.2159,67.4844,78.8771,281.2365,2.8444e-05,1.65e-06,0.0,0 STARLINK-3577,1 51884U 22022AJ  24062.72395727  .00000165  00000-0  28444-4 0  9998,2 51884  53.2159  67.4844 0001283  78.8771 281.2365 15.08860335112075,6917.818,95.436,540.571,538.796,0.0
51884.0,STARLINK-3577,PAYLOAD,2024-03-03 04:30:13,15.08830505,0.0001375,53.2166,65.4066,87.0537,273.0612,1.7629e-05,-7e-08,0.0,0 STARLINK-3577,1 51884U 22022AJ  24063.18765864 -.00000007  00000-0  17629-4 0  9991,2 51884  53.2166  65.4066 0001375  87.0537 273.0612 15.08830505112149,6917.909,95.438,540.726,538.823,0.0
51884.0,STARLINK-3577,PAYLOAD,2024-03-03 09:16:22,15.08839702,0.0001538,53.217,64.5123,84.6023,275.5145,2.1992e-05,6.2e-07,0.0,0 STARLINK-3577,1 51884U 22022AJ  24063.38637394  .00000062  00000-0  21992-4 0  9997,2 51884  53.2170  64.5123 0001538  84.6023 275.5145 15.08839702112171,6917.881,95.438,540.81,538.682,0.0
51884.0,STARLINK-3577,PAYLOAD,2024-03-04 05:56:22,15.08847455,0.0001497,53.2175,60.6464,87.6238,272.4925,4.0172e-05,3.52e-06,0.0,0 STARLINK-3577,1 51884U 22022AJ  24064.24748718  .00000352  00000-0  40172-4 0  9999,2 51884  53.2175  60.6464 0001497  87.6238 272.4925 15.08847455112307,6917.858,95.437,540.758,538.687,0.0
51884.0,STARLINK-3577,PAYLOAD,2024-03-04 17:04:05,15.08839645,0.0001803,53.216,58.5624,97.5861,262.5336,8.7879e-06,-1.48e-06,0.0,0 STARLINK-3577,1 51884U 22022AJ  24064.71116911 -.00000148  00000-0  87879-5 0  9995,2 51884  53.2160  58.5624 0001803  97.5861 262.5336 15.08839645112373,6917.881,95.438,540.994,538.499,0.0
51884.0,STARLINK-3577,PAYLOAD,2024-03-05 05:47:11,15.08828613,0.0002126,53.2199,56.1822,93.3461,266.7775,-3.1641e-05,-7.92e-06,0.0,0 STARLINK-3577,1 51884U 22022AJ  24065.24109975 -.00000792  00000-0 -31641-4 0  9997,2 51884  53.2199  56.1822 0002126  93.3461 266.7775 15.08828613112453,6917.915,95.438,541.251,538.309,0.0
51884.0,STARLINK-3577,PAYLOAD,2024-03-05 16:54:53,15.08830409,0.0002138,53.2215,54.1006,109.098,251.0244,3.748e-05,3.08e-06,0.0,0 STARLINK-3577,1 51884U 22022AJ  24065.70478282  .00000308  00000-0  37480-4 0  9996,2 51884  53.2215  54.1006 0002138 109.0980 251.0244 15.08830409112520,6917.91,95.438,541.254,538.296,0.0
51884.0,STARLINK-3577,PAYLOAD,2024-03-06 04:02:34,15.0884854,0.0001733,53.2183,52.0197,106.8978,253.2205,0.00010382,1.365e-05,0.0,0 STARLINK-3577,1 51884U 22022AJ  24066.16844965  .00001365  00000-0  10382-3 0  9997,2 51884  53.2183  52.0197 0001733 106.8978 253.2205 15.08848540112597,6917.854,95.437,540.918,538.52,0.0
